{
  "norad_id": 57437,
  "name": "STARLINK-30237",
  "history": [
    {
      "epoch": "2026-03-28T20:00:01.999872Z",
      "apogee_km": 357.12493602129416,
      "perigee_km": 331.39120434892084,
      "latitude_deg": 31.041947906189208,
      "longitude_deg": 33.11321733411152,
      "height_km": 337.0849723961474,
      "semi_major_axis_km": 6722.395070185107,
      "eccentricity": 0.00191403,
      "inclination_deg": 42.9921,
      "raan_deg": 119.4319,
      "arg_perigee_deg": 101.1239,
      "mean_anomaly_deg": 307.9522,
      "mean_motion_rev_day": 15.75131127
    },
    {
      "epoch": "2026-03-29T04:00:01.999584Z",
      "apogee_km": 355.05219386063527,
      "perigee_km": 329.349589559999,
      "latitude_deg": 24.851550036648508,
      "longitude_deg": 21.220002512167483,
      "height_km": 331.9534076366483,
      "semi_major_axis_km": 6720.337891710316,
      "eccentricity": 0.0019123,
      "inclination_deg": 42.9917,
      "raan_deg": 117.4101,
      "arg_perigee_deg": 103.6475,
      "mean_anomaly_deg": 38.32,
      "mean_motion_rev_day": 15.75854433
    },
    {
      "epoch": "2026-03-30T04:00:01.999584Z",
      "apogee_km": 348.7879135540725,
      "perigee_km": 322.71921926282175,
      "latitude_deg": 38.90959425665205,
      "longitude_deg": -76.81795550172012,
      "height_km": 328.56424020631295,
      "semi_major_axis_km": 6713.890566408447,
      "eccentricity": 0.0019414,
      "inclination_deg": 42.9905,
      "raan_deg": 111.3243,
      "arg_perigee_deg": 110.6125,
      "mean_anomaly_deg": 316.1977,
      "mean_motion_rev_day": 15.78124909
    },
    {
      "epoch": "2026-03-30T06:00:02.000160Z",
      "apogee_km": 348.18791043762485,
      "perigee_km": 322.7996442899466,
      "latitude_deg": -0.8225523128103809,
      "longitude_deg": 14.041704246767086,
      "height_km": 330.86901264042336,
      "semi_major_axis_km": 6713.6307773637855,
      "eccentricity": 0.0018908,
      "inclination_deg": 42.9904,
      "raan_deg": 110.817,
      "arg_perigee_deg": 111.7978,
      "mean_anomaly_deg": 69.1116,
      "mean_motion_rev_day": 15.7821651
    },
    {
      "epoch": "2026-03-30T14:00:03.000384Z",
      "apogee_km": 346.92118024089723,
      "perigee_km": 321.7827747703586,
      "latitude_deg": -42.67401167344166,
      "longitude_deg": -8.753582377305976,
      "height_km": 359.5230207739999,
      "semi_major_axis_km": 6712.488977505627,
      "eccentricity": 0.00187251,
      "inclination_deg": 42.9914,
      "raan_deg": 108.7787,
      "arg_perigee_deg": 113.9822,
      "mean_anomaly_deg": 163.6583,
      "mean_motion_rev_day": 15.78619211
    },
    {
      "epoch": "2026-03-30T22:00:00.999936Z",
      "apogee_km": 346.5591715655728,
      "perigee_km": 321.1637883567628,
      "latitude_deg": 9.576546342589966,
      "longitude_deg": -41.18990008464875,
      "height_km": 335.8423680665382,
      "semi_major_axis_km": 6711.9984799611675,
      "eccentricity": 0.00189179,
      "inclination_deg": 42.9906,
      "raan_deg": 106.748,
      "arg_perigee_deg": 117.6629,
      "mean_anomaly_deg": 256.6689,
      "mean_motion_rev_day": 15.78792257
    },
    {
      "epoch": "2026-03-31T20:00:01.999008Z",
      "apogee_km": 345.51679208100086,
      "perigee_km": 319.965794067949,
      "latitude_deg": -8.046135446782449,
      "longitude_deg": 160.6130940465276,
      "height_km": 329.00009356202145,
      "semi_major_axis_km": 6710.878293074475,
      "eccentricity": 0.0019037,
      "inclination_deg": 42.9905,
      "raan_deg": 101.1539,
      "arg_perigee_deg": 124.1586,
      "mean_anomaly_deg": 67.3285,
      "mean_motion_rev_day": 15.79187574
    },
    {
      "epoch": "2026-04-01T20:00:01.999008Z",
      "apogee_km": 344.3923898099629,
      "perigee_km": 318.66216923085904,
      "latitude_deg": 34.43852552370311,
      "longitude_deg": 97.84279016548606,
      "height_km": 320.11373596115357,
      "semi_major_axis_km": 6709.664279520411,
      "eccentricity": 0.0019174,
      "inclination_deg": 42.9903,
      "raan_deg": 95.0476,
      "arg_perigee_deg": 132.3518,
      "mean_anomaly_deg": 351.9349,
      "mean_motion_rev_day": 15.79616189
    },
    {
      "epoch": "2026-04-02T20:00:01.999008Z",
      "apogee_km": 343.0650984623726,
      "perigee_km": 317.0600919116705,
      "latitude_deg": 35.704282902566405,
      "longitude_deg": 7.803041209986288,
      "height_km": 329.60038866032625,
      "semi_major_axis_km": 6708.199595187021,
      "eccentricity": 0.0019383,
      "inclination_deg": 42.9902,
      "raan_deg": 88.9368,
      "arg_perigee_deg": 139.6926,
      "mean_anomaly_deg": 279.0662,
      "mean_motion_rev_day": 15.80133563
    },
    {
      "epoch": "2026-04-02T22:00:01.999584Z",
      "apogee_km": 342.90527684624067,
      "perigee_km": 316.80796183007806,
      "latitude_deg": 4.367988890512429,
      "longitude_deg": 102.4873618602569,
      "height_km": 318.2111111614176,
      "semi_major_axis_km": 6707.993619338159,
      "eccentricity": 0.00194524,
      "inclination_deg": 42.9899,
      "raan_deg": 88.4277,
      "arg_perigee_deg": 140.5681,
      "mean_anomaly_deg": 32.8501,
      "mean_motion_rev_day": 15.80206343
    },
    {
      "epoch": "2026-04-03T20:00:01.999008Z",
      "apogee_km": 341.5980125505366,
      "perigee_km": 315.356372537949,
      "latitude_deg": -3.299205930501053,
      "longitude_deg": -52.87357528451144,
      "height_km": 340.364471694353,
      "semi_major_axis_km": 6706.6141925442425,
      "eccentricity": 0.0019564,
      "inclination_deg": 42.9905,
      "raan_deg": 82.8221,
      "arg_perigee_deg": 147.7738,
      "mean_anomaly_deg": 207.6045,
      "mean_motion_rev_day": 15.80693897
    },
    {
      "epoch": "2026-04-04T20:00:01.999008Z",
      "apogee_km": 340.09090494517295,
      "perigee_km": 313.6383325588722,
      "latitude_deg": -38.62419622930649,
      "longitude_deg": -114.91589444906062,
      "height_km": 348.3023959320001,
      "semi_major_axis_km": 6705.001618752022,
      "eccentricity": 0.0019726,
      "inclination_deg": 42.9902,
      "raan_deg": 76.7007,
      "arg_perigee_deg": 155.0547,
      "mean_anomaly_deg": 139.0199,
      "mean_motion_rev_day": 15.81264174
    },
    {
      "epoch": "2026-04-05T14:00:03.000384Z",
      "apogee_km": 338.8857451724971,
      "perigee_km": 312.4946545582434,
      "latitude_deg": -39.88584477625252,
      "longitude_deg": -88.73671897249152,
      "height_km": 337.3761873942861,
      "semi_major_axis_km": 6703.82719986537,
      "eccentricity": 0.00196836,
      "inclination_deg": 42.9907,
      "raan_deg": 72.1085,
      "arg_perigee_deg": 160.6442,
      "mean_anomaly_deg": 88.6948,
      "mean_motion_rev_day": 15.81679716
    },
    {
      "epoch": "2026-04-05T20:00:03.000384Z",
      "apogee_km": 338.9448241935879,
      "perigee_km": 312.28266672873906,
      "latitude_deg": -34.07302504611905,
      "longitude_deg": 162.6061964599461,
      "height_km": 331.03945851454097,
      "semi_major_axis_km": 6703.750745461163,
      "eccentricity": 0.0019886,
      "inclination_deg": 42.9905,
      "raan_deg": 70.5764,
      "arg_perigee_deg": 162.9882,
      "mean_anomaly_deg": 71.6622,
      "mean_motion_rev_day": 15.81706774
    }
  ]
}